     2.11           N: GPS NAV DATA                         RINEX VERSION / TYPE
teqc  2019Feb25                         20221121 12:28:44UTCPGM / RUN BY / DATE
OSX ker:10.11.6|Core i5|gcc 4.3 -m64|OSX ker:10.10+|=+      COMMENT
    1.2107D-08  0.0000D+00 -1.1921D-07  0.0000D+00          ION ALPHA
    9.4208D+04  0.0000D+00 -1.9661D+05  0.0000D+00          ION BETA
   -9.313225746155D-10 1.776356839400D-15   319488     1555 DELTA-UTC: A0,A1,T,W
                                                            END OF HEADER
 2 09 10 26  0  0  0.0 1.846607774496D-04 3.865352482535D-12 0.000000000000D+00
    1.030000000000D+02 2.006250000000D+01 5.282720046494D-09-7.069994677428D-01
    1.039355993271D-06 9.134182007983D-03 7.126480340958D-06 5.153721363068D+03
    8.640000000000D+04 6.332993507385D-08 3.116393095310D+00-1.545995473862D-07
    9.410454524004D-01 2.317187500000D+02 2.906897924744D+00-8.368920027683D-09
    1.032185851827D-10 1.000000000000D+00 1.555000000000D+03 0.000000000000D+00
    2.000000000000D+00 0.000000000000D+00-1.722946763039D-08 1.030000000000D+02
    8.344800000000D+04 4.000000000000D+00
 4 09 10 26  0  0  0.0-3.282027319074D-04-1.796252036002D-11 0.000000000000D+00
    5.800000000000D+01 1.737500000000D+01 5.254147427759D-09 2.139426693035D+00
    9.387731552124D-07 8.969463990070D-03 7.499009370804D-06 5.153558835983D+03
    8.640000000000D+04-2.291053533554D-07 3.134559505225D+00-5.960464477539D-08
    9.402289700249D-01 2.265000000000D+02 5.449815464746D-01-8.260344076487D-09
    3.178703834345D-11 1.000000000000D+00 1.555000000000D+03 0.000000000000D+00
    2.000000000000D+00 0.000000000000D+00-6.053596735001D-09 5.800000000000D+01
    8.344800000000D+04 4.000000000000D+00
 5 09 10 26  0  0  0.0-5.738856270909D-05 8.071765478235D-12 0.000000000000D+00
    7.500000000000D+01 3.253125000000D+01 4.643407702283D-09 6.910714190414D-01
    1.762062311172D-06 1.577198738232D-03 7.493421435356D-06 5.153583148956D+03
    8.640000000000D+04 1.490116119385D-08-2.108807503108D+00-6.891787052155D-08
    9.610593171896D-01 2.319687500000D+02 2.172370910368D-01-8.088551206339D-09
   -3.518003681831D-10 1.000000000000D+00 1.555000000000D+03 0.000000000000D+00
    2.000000000000D+00 0.000000000000D+00-9.313225746155D-09 7.500000000000D+01
    8.344800000000D+04 4.000000000000D+00
10 09 10 26  0  0  0.0-2.674805000424D-05-9.094947017729D-13 0.000000000000D+00
    1.100000000000D+01 3.343750000000D+01 4.792342477443D-09 4.257878441156D-01
    1.909211277962D-06 8.659312850796D-03 7.456168532372D-06 5.153390649796D+03
    8.640000000000D+04 2.235174179077D-08-2.081843381819D+00 6.146728992462D-08
    9.561182601747D-01 2.309375000000D+02 6.162807811511D-01-8.259272603284D-09
   -3.725155167665D-10 1.000000000000D+00 1.555000000000D+03 0.000000000000D+00
    2.000000000000D+00 0.000000000000D+00-2.793967723846D-09 1.100000000000D+01
    8.344800000000D+04 4.000000000000D+00
13 09 10 26  0  0  0.0 3.058793954551D-04 2.273736754432D-13 0.000000000000D+00
    5.300000000000D+01 4.203125000000D+01 3.765871149364D-09-7.689662696174D-02
    2.140179276466D-06 3.946707467549D-03 6.608664989471D-06 5.153636344910D+03
    8.640000000000D+04-6.891787052155D-08-9.953368556152D-01 2.235174179077D-08
    9.941255199468D-01 2.699375000000D+02 1.660841835540D+00-7.803182176716D-09
   -8.643217167545D-11 1.000000000000D+00 1.555000000000D+03 0.000000000000D+00
    2.000000000000D+00 0.000000000000D+00-1.117587089539D-08 5.300000000000D+01
    8.344800000000D+04 4.000000000000D+00
23 09 10 26  0  0  0.0 3.869924694300D-04-5.684341886081D-13 0.000000000000D+00
    4.900000000000D+01 3.781250000000D+01 4.250891352402D-09-8.113731882186D-01
    1.888722181320D-06 6.380684557371D-03 6.657093763351D-06 5.153763292313D+03
    8.640000000000D+04 2.793967723846D-08-1.050965946733D+00-1.173466444016D-07
    9.694237297838D-01 2.563437500000D+02 2.995619792526D+00-8.012119451221D-09
   -7.428880871279D-11 1.000000000000D+00 1.555000000000D+03 0.000000000000D+00
    2.000000000000D+00 0.000000000000D+00-2.002343535423D-08 4.900000000000D+01
    8.344800000000D+04 4.000000000000D+00
25 09 10 26  0  0  0.0 6.442675366998D-04 1.341504685115D-11 0.000000000000D+00
    1.050000000000D+02-8.250000000000D+00 4.186245802512D-09 2.164711428257D+00
   -4.190951585770D-07 1.125981786754D-02 4.544854164124D-06 5.153641448975D+03
    8.640000000000D+04 1.955777406693D-07-1.036644041642D-01 5.029141902924D-08
    9.716445579245D-01 2.947812500000D+02-1.214891868666D+00-7.873542250353D-09
   -3.821587755898D-11 1.000000000000D+00 1.555000000000D+03 0.000000000000D+00
    2.800000000000D+00 0.000000000000D+00-7.450580596924D-09 1.050000000000D+02
    8.344800000000D+04 4.000000000000D+00
16 09 10 26  0  0  0.0-1.425389200449D-06-4.092726157978D-12 0.000000000000D+00
    6.100000000000D+01-6.487500000000D+01 4.188031591183D-09 1.525237292255D+00
   -3.272667527199D-06 5.299068288878D-03 6.902962923050D-06 5.153646511078D+03
    8.640000000000D+04-3.725290298462D-09 1.060245980735D+00 8.568167686462D-08
    9.695970914279D-01 2.501250000000D+02-2.693836778715D-01-7.886757086518D-09
    9.286101089098D-12 1.000000000000D+00 1.555000000000D+03 0.000000000000D+00
    2.000000000000D+00 0.000000000000D+00-9.778887033463D-09 6.100000000000D+01
    8.506800000000D+04 4.000000000000D+00
 7 09 10 26  0  0  0.0 8.918810635805D-06-6.821210263297D-13 0.000000000000D+00
    7.600000000000D+01-1.681250000000D+01 4.322322899241D-09-2.423406144502D+00
   -8.586794137955D-07 3.238048753701D-03 4.958361387253D-06 5.153646158218D+03
    8.640000000000D+04-1.862645149231D-08-9.512039643203D-03-2.793967723846D-08
    9.695355918147D-01 2.890937500000D+02 3.001350052883D+00-8.073550581502D-09
    4.714482091388D-11 1.000000000000D+00 1.555000000000D+03 0.000000000000D+00
    2.000000000000D+00 0.000000000000D+00-1.071020960808D-08 7.600000000000D+01
    8.539800000000D+04 4.000000000000D+00
 7 09 10 26  2  0  0.0 8.913222700357D-06-6.821210263297D-13 0.000000000000D+00
    8.100000000000D+01-1.268750000000D+01 4.297321857847D-09-1.373045060267D+00
   -6.835907697678D-07 3.237792756408D-03 5.051493644714D-06 5.153647256851D+03
    9.360000000000D+04-2.793967723846D-08-9.570104324687D-03-4.284083843231D-08
    9.695359180455D-01 2.873750000000D+02 3.001184727048D+00-8.070693319629D-09
    3.500145795122D-11 1.000000000000D+00 1.555000000000D+03 0.000000000000D+00
    2.000000000000D+00 0.000000000000D+00-1.071020960808D-08 8.100000000000D+01
    8.641800000000D+04 4.000000000000D+00
16 09 10 26  2  0  0.0-1.454725861549D-06-4.092726157978D-12 0.000000000000D+00
    7.500000000000D+01-7.134375000000D+01 4.214461263514D-09 2.575385429746D+00
   -3.645196557045D-06 5.298516363837D-03 7.089227437973D-06 5.153647411346D+03
    9.360000000000D+04 7.450580596924D-09 1.060189474061D+00 1.117587089539D-08
    9.695968763789D-01 2.493437500000D+02-2.693365207072D-01-7.891757294797D-09
   -4.857345185067D-11 1.000000000000D+00 1.555000000000D+03 0.000000000000D+00
    2.000000000000D+00 0.000000000000D+00-9.778887033463D-09 7.500000000000D+01
    8.641800000000D+04 4.000000000000D+00
10 09 10 26  2  0  0.0-2.675456926227D-05-9.094947017729D-13 0.000000000000D+00
    1.200000000000D+01 3.287500000000D+01 4.826629619926D-09 1.476120998319D+00
    1.866370439529D-06 8.659403538331D-03 7.763504981995D-06 5.153391063690D+03
    9.360000000000D+04-8.195638656616D-08-2.081903345368D+00 1.788139343262D-07
    9.561158741553D-01 2.295000000000D+02 6.163039376814D-01-8.229985669080D-09
   -2.642967233051D-10 1.000000000000D+00 1.555000000000D+03 0.000000000000D+00
    2.000000000000D+00 0.000000000000D+00-2.793967723846D-09 1.200000000000D+01
    8.641800000000D+04 4.000000000000D+00
 5 09 10 26  2  0  0.0-5.733082070947D-05 8.071765478235D-12 0.000000000000D+00
    8.800000000000D+01 3.293750000000D+01 4.706267463502D-09 1.741491082905D+00
    1.838430762291D-06 1.577164046466D-03 7.551163434982D-06 5.153582624435D+03
    9.360000000000D+04 5.774199962616D-08-2.108866566963D+00 9.872019290924D-08
    9.610572135134D-01 2.342812500000D+02 2.170553307801D-01-8.104980462112D-09
   -2.089372745047D-10 1.000000000000D+00 1.555000000000D+03 0.000000000000D+00
    2.000000000000D+00 0.000000000000D+00-9.313225746155D-09 8.800000000000D+01
    8.641800000000D+04 4.000000000000D+00
13 09 10 26  2  0  0.0 3.058807924390D-04 2.273736754432D-13 0.000000000000D+00
    5.400000000000D+01 3.565625000000D+01 3.723726536728D-09 9.732090639610D-01
    1.750886440277D-06 3.947877674364D-03 6.934627890587D-06 5.153638637543D+03
    9.360000000000D+04-1.080334186554D-07-9.953931443142D-01-4.284083843231D-08
    9.941250254805D-01 2.634375000000D+02 1.660933477118D+00-7.766394930094D-09
   -6.393123442110D-11 1.000000000000D+00 1.555000000000D+03 0.000000000000D+00
    2.000000000000D+00 0.000000000000D+00-1.117587089539D-08 5.400000000000D+01
    8.641800000000D+04 4.000000000000D+00
23 09 10 26  2  0  0.0 3.869882784784D-04-5.684341886081D-13 0.000000000000D+00
    5.100000000000D+01 3.781250000000D+01 4.340537943685D-09 2.387789474273D-01
    1.819804310799D-06 6.379921338521D-03 6.914138793945D-06 5.153761989594D+03
    9.360000000000D+04 5.587935447693D-08-1.051023677869D+00-2.793967723846D-08
    9.694227715725D-01 2.488750000000D+02 2.995591937102D+00-8.077479316579D-09
   -1.121475285376D-10 1.000000000000D+00 1.555000000000D+03 0.000000000000D+00
    2.000000000000D+00 0.000000000000D+00-2.002343535423D-08 5.100000000000D+01
    8.641800000000D+04 4.000000000000D+00
